{
  "id": "hangzhou_detailed",
  "name": "杭州市详细地名数据库",
  "description": "包含杭州市各区县、街道、大桥、标志性地名的详细QTH数据库",
  "version": "1.0.0",
  "language": "zh-CN",
  "type": "custom",
  "createdDate": "2025-01-14T00:00:00.000Z",
  "exportDate": "2025-01-14T00:00:00.000Z",
  "exportVersion": "1.0.0",
  "data": {
    "provinces": [
      { "name": "浙江", "pinyin": "zhejiang", "short": "zj" }
    ],
    "cities": [
      { "name": "杭州", "pinyin": "hangzhou", "short": "hz", "province": "浙江" },

      { "name": "上城区", "pinyin": "shangchengqu", "short": "scq", "province": "浙江" },
      { "name": "拱墅区", "pinyin": "gongshuqu", "short": "gsq", "province": "浙江" },
      { "name": "西湖区", "pinyin": "xihuqu", "short": "xhq", "province": "浙江" },
      { "name": "滨江区", "pinyin": "binjiangqu", "short": "bjq", "province": "浙江" },
      { "name": "萧山区", "pinyin": "xiaoshanqu", "short": "xsq", "province": "浙江" },
      { "name": "余杭区", "pinyin": "yuhangqu", "short": "yhq", "province": "浙江" },
      { "name": "临平区", "pinyin": "linpingqu", "short": "lpq", "province": "浙江" },
      { "name": "钱塘区", "pinyin": "qiantangqu", "short": "qtq", "province": "浙江" },
      { "name": "富阳区", "pinyin": "fuyangqu", "short": "fyq", "province": "浙江" },
      { "name": "临安区", "pinyin": "linanqu", "short": "laq", "province": "浙江" },
      { "name": "桐庐县", "pinyin": "tongluxian", "short": "tlx", "province": "浙江" },
      { "name": "淳安县", "pinyin": "chunanxian", "short": "cax", "province": "浙江" },
      { "name": "建德市", "pinyin": "jiandeshi", "short": "jds", "province": "浙江" },

      { "name": "湖滨街道", "pinyin": "hubinjiedao", "short": "hbjd", "province": "浙江" },
      { "name": "清波街道", "pinyin": "qingbojiedao", "short": "qbjd", "province": "浙江" },
      { "name": "小营街道", "pinyin": "xiaoyingjiedao", "short": "xyjd", "province": "浙江" },
      { "name": "望江街道", "pinyin": "wangjiangjiedao", "short": "wjjd", "province": "浙江" },
      { "name": "南星街道", "pinyin": "nanxingjiedao", "short": "nxjd", "province": "浙江" },
      { "name": "紫阳街道", "pinyin": "ziyangjiedao", "short": "zyjd", "province": "浙江" },
      { "name": "定安路街道", "pinyin": "dinganlu", "short": "dal", "province": "浙江" },
      { "name": "采荷街道", "pinyin": "caihejiedao", "short": "chjd", "province": "浙江" },
      { "name": "四季青街道", "pinyin": "sijiqingjiedao", "short": "sjqjd", "province": "浙江" },
      { "name": "笕桥街道", "pinyin": "jianqiaojiedao", "short": "jqjd", "province": "浙江" },
      { "name": "彭埠街道", "pinyin": "pengbujiedao", "short": "pbjd", "province": "浙江" },
      { "name": "九堡街道", "pinyin": "jiubaojiedao", "short": "jbjd", "province": "浙江" },

      { "name": "米市巷街道", "pinyin": "mishixiangjiedao", "short": "msxjd", "province": "浙江" },
      { "name": "湖墅街道", "pinyin": "hushujiedao", "short": "hsjd", "province": "浙江" },
      { "name": "小河街道", "pinyin": "xiaohejiedao", "short": "xhjd", "province": "浙江" },
      { "name": "和睦街道", "pinyin": "hemujiedao", "short": "hmjd", "province": "浙江" },
      { "name": "拱宸桥街道", "pinyin": "gongchenqiaojiedao", "short": "gcqjd", "province": "浙江" },
      { "name": "大关街道", "pinyin": "daguanjiedao", "short": "dgjd", "province": "浙江" },
      { "name": "上塘街道", "pinyin": "shangtangjiedao", "short": "stjd", "province": "浙江" },
      { "name": "康桥街道", "pinyin": "kangqiaojiedao", "short": "kqjd", "province": "浙江" },
      { "name": "半山街道", "pinyin": "banshanjiedao", "short": "bsjd", "province": "浙江" },

      { "name": "北山街道", "pinyin": "beishanjiedao", "short": "bsjd", "province": "浙江" },
      { "name": "西溪街道", "pinyin": "xixijiedao", "short": "xxjd", "province": "浙江" },
      { "name": "灵隐街道", "pinyin": "lingyinjiedao", "short": "lyjd", "province": "浙江" },
      { "name": "翠苑街道", "pinyin": "cuiyuanjiedao", "short": "cyjd", "province": "浙江" },
      { "name": "文新街道", "pinyin": "wenxinjiedao", "short": "wxjd", "province": "浙江" },
      { "name": "古荡街道", "pinyin": "gudangjiedao", "short": "gdjd", "province": "浙江" },
      { "name": "留下街道", "pinyin": "liuxiajiedao", "short": "lxjd", "province": "浙江" },
      { "name": "蒋村街道", "pinyin": "jiangcunjiedao", "short": "jcjd", "province": "浙江" },
      { "name": "三墩街道", "pinyin": "sandunjiedao", "short": "sdjd", "province": "浙江" },

      { "name": "西兴街道", "pinyin": "xixingjiedao", "short": "xxjd", "province": "浙江" },
      { "name": "长河街道", "pinyin": "changhejiedao", "short": "chjd", "province": "浙江" },
      { "name": "浦沿街道", "pinyin": "puyanjiedao", "short": "pyjd", "province": "浙江" },
      
      { "name": "钱塘江大桥", "pinyin": "qiantangjiangdaqiao", "short": "qtjdq", "province": "浙江" },
      { "name": "复兴大桥", "pinyin": "fuxingdaqiao", "short": "fxdq", "province": "浙江" },
      { "name": "西兴大桥", "pinyin": "xixingdaqiao", "short": "xxdq", "province": "浙江" },
      { "name": "钱江二桥", "pinyin": "qianjiangerhao", "short": "qjeh", "province": "浙江" },
      { "name": "钱江三桥", "pinyin": "qianjiangsan", "short": "qjs", "province": "浙江" },
      { "name": "钱江四桥", "pinyin": "qianjiangsi", "short": "qjsi", "province": "浙江" },
      { "name": "九堡大桥", "pinyin": "jiubaodaqiao", "short": "jbdq", "province": "浙江" },
      { "name": "下沙大桥", "pinyin": "xiashadaqiao", "short": "xsdq", "province": "浙江" },
      { "name": "江东大桥", "pinyin": "jiangdongdaqiao", "short": "jddq", "province": "浙江" },
      { "name": "之江大桥", "pinyin": "zhijiangdaqiao", "short": "zjdq", "province": "浙江" },
      { "name": "袁浦大桥", "pinyin": "yuanpudaqiao", "short": "ypdq", "province": "浙江" },
      { "name": "彭埠大桥", "pinyin": "pengbudaqiao", "short": "pbdq", "province": "浙江" },
      { "name": "庆春路过江隧道", "pinyin": "qingchunluguojiangsuidao", "short": "qclgjsd", "province": "浙江" },
      { "name": "钱江隧道", "pinyin": "qianjiangsuida", "short": "qjsd", "province": "浙江" },

      { "name": "西湖", "pinyin": "xihu", "short": "xh", "province": "浙江" },
      { "name": "断桥", "pinyin": "duanqiao", "short": "dq", "province": "浙江" },
      { "name": "雷峰塔", "pinyin": "leifengta", "short": "lft", "province": "浙江" },
      { "name": "灵隐寺", "pinyin": "lingyinsi", "short": "lys", "province": "浙江" },
      { "name": "岳王庙", "pinyin": "yuewangmiao", "short": "ywm", "province": "浙江" },
      { "name": "苏堤", "pinyin": "sudi", "short": "sd", "province": "浙江" },
      { "name": "白堤", "pinyin": "baidi", "short": "bd", "province": "浙江" },
      { "name": "三潭印月", "pinyin": "santanyinyue", "short": "styy", "province": "浙江" },
      { "name": "花港观鱼", "pinyin": "huagangguanyu", "short": "hggy", "province": "浙江" },
      { "name": "曲院风荷", "pinyin": "quyuanfenghe", "short": "qyfh", "province": "浙江" },
      { "name": "平湖秋月", "pinyin": "pinghuqiuyue", "short": "phqy", "province": "浙江" },
      { "name": "柳浪闻莺", "pinyin": "liulangwenying", "short": "llwy", "province": "浙江" },
      { "name": "双峰插云", "pinyin": "shuangfengchayun", "short": "sfcy", "province": "浙江" },
      { "name": "南屏晚钟", "pinyin": "nanpingwanzhong", "short": "npwz", "province": "浙江" },
      { "name": "宝石山", "pinyin": "baoshishan", "short": "bss", "province": "浙江" },
      { "name": "孤山", "pinyin": "gushan", "short": "gs", "province": "浙江" },
      { "name": "西溪湿地", "pinyin": "xixishidi", "short": "xxsd", "province": "浙江" },
      { "name": "千岛湖", "pinyin": "qiandaohu", "short": "qdh", "province": "浙江" },
      { "name": "富春江", "pinyin": "fuchunjiang", "short": "fcj", "province": "浙江" },
      { "name": "钱塘江", "pinyin": "qiantangjiang", "short": "qtj", "province": "浙江" },
      { "name": "半山", "pinyin": "banshan", "short": "bs", "province": "浙江" },
      { "name": "安顶山", "pinyin": "andingshan", "short": "ads", "province": "浙江" },
      { "name": "寺坞岭", "pinyin": "siwuling", "short": "swl", "province": "浙江" },
      { "name": "马家坞", "pinyin": "majiawu", "short": "mjw", "province": "浙江" },
      { "name": "香积寺", "pinyin": "xiangjisi", "short": "xjs", "province": "浙江" },
      { "name": "闻堰码头", "pinyin": "wenyanmatou", "short": "wymt", "province": "浙江" },
      { "name": "良渚", "pinyin": "liangzhu", "short": "lz", "province": "浙江" },
      { "name": "紫金港", "pinyin": "zijingang", "short": "zjg", "province": "浙江" },

      { "name": "武林广场", "pinyin": "wulinguangchang", "short": "wlgc", "province": "浙江" },
      { "name": "西湖文化广场", "pinyin": "xihuwhgc", "short": "xhwhgc", "province": "浙江" },
      { "name": "湖滨银泰", "pinyin": "hubinyintai", "short": "hbyt", "province": "浙江" },
      { "name": "万象城", "pinyin": "wanxiangcheng", "short": "wxc", "province": "浙江" },
      { "name": "城西银泰", "pinyin": "chengxiyintai", "short": "cxyt", "province": "浙江" },
      { "name": "滨江宝龙城", "pinyin": "binjiangbaolongcheng", "short": "bjblc", "province": "浙江" },
      { "name": "奥体中心", "pinyin": "aotizhongxin", "short": "atzx", "province": "浙江" },
      { "name": "黄龙体育中心", "pinyin": "huanglongtiyuzhongxin", "short": "hltyzx", "province": "浙江" },
      { "name": "杭州东站", "pinyin": "hangzhoudongzhan", "short": "hzdz", "province": "浙江" },
      { "name": "杭州站", "pinyin": "hangzhouzhan", "short": "hzz", "province": "浙江" },
      { "name": "杭州南站", "pinyin": "hangzhounanzhan", "short": "hznz", "province": "浙江" },
      { "name": "杭州西站", "pinyin": "hangzhouxizhan", "short": "hzxz", "province": "浙江" },
      { "name": "萧山机场", "pinyin": "xiaoshanjichang", "short": "xsjc", "province": "浙江" },
      { "name": "拱墅和睦", "pinyin": "gongshuhemu", "short": "gshm", "province": "浙江" },
      { "name": "拱墅万达", "pinyin": "gongshuwanda", "short": "gswd", "province": "浙江" },
      { "name": "余杭闲林", "pinyin": "yuhangxianlin", "short": "yhxl", "province": "浙江" },
      { "name": "胜利河美食街", "pinyin": "shenglihemeishijie", "short": "slhmsj", "province": "浙江" },
      { "name": "拱墅新天地", "pinyin": "gongshuxintiandi", "short": "gsxtd", "province": "浙江" },
      { "name": "大悦城", "pinyin": "dayuecheng", "short": "dyc", "province": "浙江" },
      { "name": "滨江区区政府", "pinyin": "binjiangququzhengfu", "short": "bjqqzf", "province": "浙江" },
      { "name": "下沙银泰", "pinyin": "xiashayintai", "short": "xsyt", "province": "浙江" },
      { "name": "下沙奥莱", "pinyin": "xiashaaolai", "short": "xsal", "province": "浙江" },
      { "name": "蚂蚁A空间", "pinyin": "mayiakongjian", "short": "myakj", "province": "浙江" },
      { "name": "武林门", "pinyin": "wulinmen", "short": "wlm", "province": "浙江" },
      { "name": "三墩", "pinyin": "sandun", "short": "sd", "province": "浙江" },
      
      { "name": "浙江大学", "pinyin": "zhejiangdaxue", "short": "zjdx", "province": "浙江" },
      { "name": "杭州师范大学", "pinyin": "hangzhoushifandaxue", "short": "hzsfdx", "province": "浙江" },
      { "name": "浙江工业大学", "pinyin": "zhejianggydy", "short": "zjgydx", "province": "浙江" },
      { "name": "中国美术学院", "pinyin": "zhongguomeishu", "short": "zgmsxy", "province": "浙江" },
      { "name": "浙江理工大学", "pinyin": "zhejianglgdx", "short": "zjlgdx", "province": "浙江" },
      { "name": "杭州电子科技大学", "pinyin": "hangzhoudianzikejidaxue", "short": "hzdzkjdx", "province": "浙江" },
      
      { "name": "滨江高新区", "pinyin": "binjianggaoxinqu", "short": "bjgxq", "province": "浙江" },
      { "name": "未来科技城", "pinyin": "weilaike", "short": "wlkjc", "province": "浙江" },
      { "name": "钱塘新区", "pinyin": "qiantangxinqu", "short": "qtxq", "province": "浙江" },
      { "name": "下沙经济开发区", "pinyin": "xiashajingjikaifaqu", "short": "xsjjkfq", "province": "浙江" },
      { "name": "之江实验室", "pinyin": "zhijiangshiyanshi", "short": "zjsys", "province": "浙江" },
      
      { "name": "延安路", "pinyin": "yananlu", "short": "yal", "province": "浙江" },
      { "name": "中山路", "pinyin": "zhongshanlu", "short": "zsl", "province": "浙江" },
      { "name": "庆春路", "pinyin": "qingchunlu", "short": "qcl", "province": "浙江" },
      { "name": "文三路", "pinyin": "wensanlu", "short": "wsl", "province": "浙江" },
      { "name": "教工路", "pinyin": "jiaogonglu", "short": "jgl", "province": "浙江" },
      { "name": "天目山路", "pinyin": "tianmushanlu", "short": "tmsl", "province": "浙江" },
      { "name": "文一路", "pinyin": "wenyilu", "short": "wyl", "province": "浙江" },
      { "name": "文二路", "pinyin": "wenerlu", "short": "wel", "province": "浙江" },
      { "name": "解放路", "pinyin": "jiefanglu", "short": "jfl", "province": "浙江" },
      { "name": "凤起路", "pinyin": "fengqilu", "short": "fql", "province": "浙江" },
      { "name": "体育场路", "pinyin": "tiyuchanglu", "short": "tycl", "province": "浙江" },
      { "name": "环城西路", "pinyin": "huanchengxilu", "short": "hcxl", "province": "浙江" },
      { "name": "环城东路", "pinyin": "huanchengdonglu", "short": "hcdl", "province": "浙江" },
      { "name": "环城北路", "pinyin": "huanchengbeilu", "short": "hcbl", "province": "浙江" },
      { "name": "环城南路", "pinyin": "huanchengnalu", "short": "hcnl", "province": "浙江" },
      { "name": "育才北路", "pinyin": "yucaibeilu", "short": "ycbl", "province": "浙江" },
      { "name": "振宁路", "pinyin": "zhenninglu", "short": "znl", "province": "浙江" },
      { "name": "建国北路", "pinyin": "jianguobeilu", "short": "jgbl", "province": "浙江" },
      { "name": "金鸡路", "pinyin": "jinjilu", "short": "jjl", "province": "浙江" },
      { "name": "凤起路", "pinyin": "fengqilu", "short": "fql", "province": "浙江" },
      
      { "name": "武林广场站", "pinyin": "wulinguangchangzhan", "short": "wlgcz", "province": "浙江" },
      { "name": "西湖文化广场站", "pinyin": "xihuwhgcz", "short": "xhwhgcz", "province": "浙江" },
      { "name": "龙翔桥站", "pinyin": "longxiangqiaozhan", "short": "lxqz", "province": "浙江" },
      { "name": "凤起路站", "pinyin": "fengqiluzhan", "short": "fqlz", "province": "浙江" },
      { "name": "近江站", "pinyin": "jinjiangzhan", "short": "jjz", "province": "浙江" },
      { "name": "钱江路站", "pinyin": "qianjiangluzhan", "short": "qjlz", "province": "浙江" },
      { "name": "钱江新城站", "pinyin": "qianjiangxinchengzhan", "short": "qjxcz", "province": "浙江" },
      { "name": "市民中心站", "pinyin": "shiminzhongxinzhan", "short": "smzxz", "province": "浙江" },
      { "name": "江陵路站", "pinyin": "jianglinglezhan", "short": "jllz", "province": "浙江" },
      { "name": "滨康路站", "pinyin": "binkangluzhan", "short": "bklz", "province": "浙江" },
      { "name": "定安路站", "pinyin": "dinganluzhan", "short": "dalz", "province": "浙江" },
      { "name": "创景路站", "pinyin": "jingchuangluzhan", "short": "jclz", "province": "浙江" },
      { "name": "星民站", "pinyin": "yucaidonglu", "short": "ycdl", "province": "浙江" },
      
      { "name": "浙江大学医学院附属第一医院", "pinyin": "zhejiangdaxueyixueyuanfushudiyiyiyuan", "short": "zjdxfsyy", "province": "浙江" },
      { "name": "浙江大学医学院附属第二医院", "pinyin": "zhejiangdaxueyixueyuanfushudieryiyuan", "short": "zjdxfseyy", "province": "浙江" },
      { "name": "浙江省人民医院", "pinyin": "zhejiangshengrenmin", "short": "zjsrmyy", "province": "浙江" },
      { "name": "杭州市第一人民医院", "pinyin": "hangzhoushidiyirenmin", "short": "hzsdyrmyy", "province": "浙江" },
      { "name": "浙江医院", "pinyin": "zhejiangyiyuan", "short": "zjyy", "province": "浙江" },
      
      { "name": "钱江新城", "pinyin": "qianjiangxincheng", "short": "qjxc", "province": "浙江" },
      { "name": "钱江世纪城", "pinyin": "qianjiangshijicheng", "short": "qjsjc", "province": "浙江" },
      { "name": "运河广场", "pinyin": "yunheguangchang", "short": "yhgc", "province": "浙江" },
      { "name": "拱宸桥", "pinyin": "gongchenqiao", "short": "gcq", "province": "浙江" },
      { "name": "河坊街", "pinyin": "hefangjie", "short": "hfj", "province": "浙江" },
      { "name": "南宋御街", "pinyin": "nansongyjie", "short": "nsyj", "province": "浙江" },
      { "name": "吴山广场", "pinyin": "wushanguangchang", "short": "wsgc", "province": "浙江" },
      { "name": "城隍阁", "pinyin": "chenghuangge", "short": "chg", "province": "浙江" },
      { "name": "六和塔", "pinyin": "liuheta", "short": "lht", "province": "浙江" },
      { "name": "虎跑泉", "pinyin": "hupao", "short": "hp", "province": "浙江" },
      { "name": "九溪十八涧", "pinyin": "jiuxishibajian", "short": "jxsbj", "province": "浙江" },
      { "name": "龙井村", "pinyin": "longjingcun", "short": "ljc", "province": "浙江" },
      { "name": "梅家坞", "pinyin": "meijiawu", "short": "mjw", "province": "浙江" },
      { "name": "云栖竹径", "pinyin": "yunqizhujing", "short": "yqzj", "province": "浙江" },
      { "name": "育才东苑", "pinyin": "yucaidongyuan", "short": "ycdy", "province": "浙江" },
      { "name": "满陇桂雨", "pinyin": "manlongguiyu", "short": "mlgy", "province": "浙江" },
      { "name": "广泽小区", "pinyin": "guangzexiaoqu", "short": "gzxq", "province": "浙江" },
      { "name": "丁桥", "pinyin": "dingqiao", "short": "dq", "province": "浙江" },
      { "name": "良渚白洋", "pinyin": "liangzhubaiyang", "short": "lzby", "province": "浙江" },
      { "name": "转塘", "pinyin": "zhuantang", "short": "zt", "province": "浙江" }
    ]
  }
}